$GNGGA,193600.00,5222.5540,N,00943.9200,E,1,14,0.82,55.2,M,46.2,M,,*74
$GPGSV,3,1,10,03,54,123,44,14,48,265,41,16,21,043,28,22,63,198,47*7A
$GPGSV,3,2,10,26,12,312,21,27,33,078,36,31,58,221,43,32,09,156,18*78
$GPGSV,3,3,10,08,07,044,15,11,18,289,25*7E
$GLGSV,2,1,07,71,48,156,39,72,22,041,27,73,61,278,42,74,15,333,19*62
$GLGSV,2,2,07,80,34,198,31,81,11,067,16,82,08,245,12*52
$GAGSV,2,1,05,301,41,188,37,303,19,055,22,305,52,240,40,308,27,301,29*60
$GBGSV,2,1,08,201,62,128,44,202,41,210,38,203,18,055,24,206,33,301,31*6B
$GBGSV,2,2,08,207,12,078,19,210,48,188,40,218,27,245,28,227,09,333,16*65
